{
  "type": "FeatureCollection",
  "features": [
    {
      "type": "Feature",
      "properties": {
        "name": "Lot A",
        "capacity": 120,
        "color": "#2a6",
        "opacity": 0.35
      },
      "geometry": {
        "type": "Polygon",
        "coordinates": [
          [
            [
              -78.90042,
              35.00051
            ],
            [
              -78.89995,
              35.00028
            ],
            [
              -78.9001,
              34.99998
            ],
            [
              -78.90058,
              35.0002
            ],
            [
              -78.90042,
              35.00051
            ]
          ]
        ]
      }
    },
    {
      "type": "Feature",
      "properties": {
        "name": "Lot KK",
        "capacity": 198,
        "color": "#2262CC",
        "opacity": 0.35
      },
      "geometry": {
        "type": "Polygon",
        "coordinates": [
          [
            [
              -79.007365,
              33.796115
            ],
            [
              -79.008051,
              33.796828
            ],
            [
              -79.005562,
              33.798467
            ],
            [
              -79.005047,
              33.797897
            ],
            [
              -79.006807,
              33.796828
            ],
            [
              -79.006506,
              33.796329
            ],
            [
              -79.007365,
              33.796115
            ]
          ]
        ]
      }
    },
    {
      "type": "Feature",
      "properties": {
        "name": "",
        "capacity": null,
        "color": "#2a6",
        "opacity": 0.35
      },
      "geometry": {
        "type": "Polygon",
        "coordinates": [
          [
            [
              -79.010327,
              33.792162
            ],
            [
              -79.010153,
              33.791702
            ],
            [
              -79.006207,
              33.794087
            ],
            [
              -79.006936,
              33.794443
            ],
            [
              -79.007537,
              33.794015
            ],
            [
              -79.008267,
              33.79316
            ],
            [
              -79.009125,
              33.793303
            ],
            [
              -79.009984,
              33.793017
            ],
            [
              -79.010327,
              33.792162
            ]
          ]
        ]
      }
    },
    {
      "type": "Feature",
      "properties": {
        "name": "",
        "capacity": null,
        "color": "#2a6",
        "opacity": 0.35
      },
      "geometry": {
        "type": "Polygon",
        "coordinates": [
          [
            [
              -79.001185,
              33.798289
            ],
            [
              -79.000155,
              33.797576
            ],
            [
              -78.999211,
              33.798324
            ],
            [
              -78.999683,
              33.799037
            ],
            [
              -79.000326,
              33.799073
            ],
            [
              -79.001185,
              33.798289
            ]
          ]
        ]
      }
    },
    {
      "type": "Feature",
      "properties": {
        "name": "",
        "capacity": null,
        "color": "#2a6",
        "opacity": 0.35
      },
      "geometry": {
        "type": "Polygon",
        "coordinates": [
          [
            [
              -79.013632,
              33.792621
            ],
            [
              -79.015517,
              33.792309
            ],
            [
              -79.016035,
              33.793049
            ],
            [
              -79.015434,
              33.793192
            ],
            [
              -79.014962,
              33.792621
            ],
            [
              -79.013886,
              33.793093
            ],
            [
              -79.013632,
              33.792621
            ]
          ]
        ]
      }
    },
    {
      "type": "Feature",
      "properties": {
        "name": "",
        "capacity": null,
        "color": "#2a6",
        "opacity": 0.35
      },
      "geometry": {
        "type": "Polygon",
        "coordinates": [
          [
            [
              -79.019898,
              33.786633
            ],
            [
              -79.017795,
              33.786276
            ],
            [
              -79.018138,
              33.784672
            ],
            [
              -79.020156,
              33.784993
            ],
            [
              -79.019898,
              33.786633
            ]
          ]
        ]
      }
    },
    {
      "type": "Feature",
      "properties": {
        "name": "",
        "capacity": null,
        "color": "#2a6",
        "opacity": 0.35
      },
      "geometry": {
        "type": "Polygon",
        "coordinates": [
          [
            [
              -79.016894,
              33.799251
            ],
            [
              -79.016465,
              33.798217
            ],
            [
              -79.015778,
              33.798467
            ],
            [
              -79.015992,
              33.799215
            ],
            [
              -79.01522,
              33.799536
            ],
            [
              -79.01552,
              33.799928
            ],
            [
              -79.016894,
              33.799251
            ]
          ]
        ]
      }
    }
  ]
}